STARLINK-37132          
1 68233U 26054B   26090.18601058  .00098369  00000+0  49576-3 0  9993
2 68233  53.1597 204.9349 0000939  27.7425 332.3648 15.80895349  2174
STARLINK-37101          
1 68234U 26054C   26090.18544284 -.00783663  00000+0 -45754-2 0  9994
2 68234  53.1595 204.9307 0005684 333.6619  26.4114 15.79678184  2176
STARLINK-36963          
1 68235U 26054D   26090.16667824  .00049219  00000+0  32406-3 0  9990
2 68235  53.1599 205.0619 0001062  70.7304 164.1481 15.75190822  3368
STARLINK-37127          
1 68236U 26054E   26090.13437558  .00374039  00000+0  23233-2 0  9995
2 68236  53.1593 205.3287 0000678 143.2547 216.8520 15.75382007  2168
STARLINK-37095          
1 68237U 26054F   26090.16667824  .00124545  00000+0  80828-3 0  9999
2 68237  53.1603 205.1144 0001062  69.6476 139.5115 15.75137510  3362
STARLINK-37097          
1 68238U 26054G   26090.11903780  .00488096  00000+0  23180-2 0  9990
2 68238  53.1593 205.2264 0000067 328.4736  31.6282 15.81068690  2167
STARLINK-37096          
1 68239U 26054H   26090.11753865  .00477526  00000+0  22707-2 0  9998
2 68239  53.1593 205.2164 0000501  27.3826 332.7223 15.81070744  2168
STARLINK-37092          
1 68240U 26054J   26090.11828917  .00430265  00000+0  20594-2 0  9992
2 68240  53.1595 205.2223 0000606  42.5189 317.5881 15.81053587  2162
STARLINK-37094          
1 68241U 26054K   26090.11679218  .00362620  00000+0  17532-2 0  9998
2 68241  53.1593 205.2128 0000427  31.5561 328.5488 15.81013123  2165
STARLINK-36356          
1 68242U 26054L   26089.73680966 -.00468872  00000+0 -25692-2 0  9991
2 68242  53.1596 207.1073 0000503  49.8547 310.2520 15.80312000  2104
STARLINK-36345          
1 68243U 26054M   26090.16667824  .00121665  00000+0  78983-3 0  9995
2 68243  53.1605 205.0571 0000997  79.7792 156.9980 15.75141076  3403
STARLINK-36310          
1 68244U 26054N   26090.05057526  .00455014  00000+0  21727-2 0  9997
2 68244  53.1598 205.5076 0001794  68.9432 291.1783 15.81041709  2150
