CCSDS_OMM_VERS = 2.0
CREATION_DATE  = 
ORIGINATOR     = 

OBJECT_NAME    = STARLINK-37132
OBJECT_ID      = 2026-054B
CENTER_NAME    = EARTH
REF_FRAME      = TEME
TIME_SYSTEM    = UTC
MEAN_ELEMENT_THEORY = SGP/SGP4

EPOCH          = 2026-03-31T04:27:51.314112
MEAN_MOTION    = 15.80895349
ECCENTRICITY   = .0000939
INCLINATION    = 53.1597
RA_OF_ASC_NODE = 204.9349
ARG_OF_PERICENTER = 27.7425
MEAN_ANOMALY   = 332.3648

EPHEMERIS_TYPE = 0
CLASSIFICATION_TYPE = U
NORAD_CAT_ID   = 68233
ELEMENT_SET_NO = 999
REV_AT_EPOCH   = 217
BSTAR          = .49576E-3
MEAN_MOTION_DOT = .98369E-3
MEAN_MOTION_DDOT = 0

CCSDS_OMM_VERS = 2.0
CREATION_DATE  = 
ORIGINATOR     = 

OBJECT_NAME    = STARLINK-37101
OBJECT_ID      = 2026-054C
CENTER_NAME    = EARTH
REF_FRAME      = TEME
TIME_SYSTEM    = UTC
MEAN_ELEMENT_THEORY = SGP/SGP4

EPOCH          = 2026-03-31T04:27:02.261376
MEAN_MOTION    = 15.79678184
ECCENTRICITY   = .0005684
INCLINATION    = 53.1595
RA_OF_ASC_NODE = 204.9307
ARG_OF_PERICENTER = 333.6619
MEAN_ANOMALY   = 26.4114

EPHEMERIS_TYPE = 0
CLASSIFICATION_TYPE = U
NORAD_CAT_ID   = 68234
ELEMENT_SET_NO = 999
REV_AT_EPOCH   = 217
BSTAR          = -.45754E-2
MEAN_MOTION_DOT = -.783663E-2
MEAN_MOTION_DDOT = 0

CCSDS_OMM_VERS = 2.0
CREATION_DATE  = 
ORIGINATOR     = 

OBJECT_NAME    = STARLINK-36963
OBJECT_ID      = 2026-054D
CENTER_NAME    = EARTH
REF_FRAME      = TEME
TIME_SYSTEM    = UTC
MEAN_ELEMENT_THEORY = SGP/SGP4

EPOCH          = 2026-03-31T04:00:00.999936
MEAN_MOTION    = 15.75190822
ECCENTRICITY   = .0001062
INCLINATION    = 53.1599
RA_OF_ASC_NODE = 205.0619
ARG_OF_PERICENTER = 70.7304
MEAN_ANOMALY   = 164.1481

EPHEMERIS_TYPE = 0
CLASSIFICATION_TYPE = U
NORAD_CAT_ID   = 68235
ELEMENT_SET_NO = 999
REV_AT_EPOCH   = 336
BSTAR          = .32406E-3
MEAN_MOTION_DOT = .49219E-3
MEAN_MOTION_DDOT = 0

CCSDS_OMM_VERS = 2.0
CREATION_DATE  = 
ORIGINATOR     = 

OBJECT_NAME    = STARLINK-37127
OBJECT_ID      = 2026-054E
CENTER_NAME    = EARTH
REF_FRAME      = TEME
TIME_SYSTEM    = UTC
MEAN_ELEMENT_THEORY = SGP/SGP4

EPOCH          = 2026-03-31T03:13:30.050112
MEAN_MOTION    = 15.75382007
ECCENTRICITY   = .0000678
INCLINATION    = 53.1593
RA_OF_ASC_NODE = 205.3287
ARG_OF_PERICENTER = 143.2547
MEAN_ANOMALY   = 216.8520

EPHEMERIS_TYPE = 0
CLASSIFICATION_TYPE = U
NORAD_CAT_ID   = 68236
ELEMENT_SET_NO = 999
REV_AT_EPOCH   = 216
BSTAR          = .23233E-2
MEAN_MOTION_DOT = .374039E-2
MEAN_MOTION_DDOT = 0

CCSDS_OMM_VERS = 2.0
CREATION_DATE  = 
ORIGINATOR     = 

OBJECT_NAME    = STARLINK-37095
OBJECT_ID      = 2026-054F
CENTER_NAME    = EARTH
REF_FRAME      = TEME
TIME_SYSTEM    = UTC
MEAN_ELEMENT_THEORY = SGP/SGP4

EPOCH          = 2026-03-31T04:00:00.999936
MEAN_MOTION    = 15.75137510
ECCENTRICITY   = .0001062
INCLINATION    = 53.1603
RA_OF_ASC_NODE = 205.1144
ARG_OF_PERICENTER = 69.6476
MEAN_ANOMALY   = 139.5115

EPHEMERIS_TYPE = 0
CLASSIFICATION_TYPE = U
NORAD_CAT_ID   = 68237
ELEMENT_SET_NO = 999
REV_AT_EPOCH   = 336
BSTAR          = .80828E-3
MEAN_MOTION_DOT = .124545E-2
MEAN_MOTION_DDOT = 0

CCSDS_OMM_VERS = 2.0
CREATION_DATE  = 
ORIGINATOR     = 

OBJECT_NAME    = STARLINK-37097
OBJECT_ID      = 2026-054G
CENTER_NAME    = EARTH
REF_FRAME      = TEME
TIME_SYSTEM    = UTC
MEAN_ELEMENT_THEORY = SGP/SGP4

EPOCH          = 2026-03-31T02:51:24.865920
MEAN_MOTION    = 15.81068690
ECCENTRICITY   = .0000067
INCLINATION    = 53.1593
RA_OF_ASC_NODE = 205.2264
ARG_OF_PERICENTER = 328.4736
MEAN_ANOMALY   = 31.6282

EPHEMERIS_TYPE = 0
CLASSIFICATION_TYPE = U
NORAD_CAT_ID   = 68238
ELEMENT_SET_NO = 999
REV_AT_EPOCH   = 216
BSTAR          = .2318E-2
MEAN_MOTION_DOT = .488096E-2
MEAN_MOTION_DDOT = 0

CCSDS_OMM_VERS = 2.0
CREATION_DATE  = 
ORIGINATOR     = 

OBJECT_NAME    = STARLINK-37096
OBJECT_ID      = 2026-054H
CENTER_NAME    = EARTH
REF_FRAME      = TEME
TIME_SYSTEM    = UTC
MEAN_ELEMENT_THEORY = SGP/SGP4

EPOCH          = 2026-03-31T02:49:15.339360
MEAN_MOTION    = 15.81070744
ECCENTRICITY   = .0000501
INCLINATION    = 53.1593
RA_OF_ASC_NODE = 205.2164
ARG_OF_PERICENTER = 27.3826
MEAN_ANOMALY   = 332.7223

EPHEMERIS_TYPE = 0
CLASSIFICATION_TYPE = U
NORAD_CAT_ID   = 68239
ELEMENT_SET_NO = 999
REV_AT_EPOCH   = 216
BSTAR          = .22707E-2
MEAN_MOTION_DOT = .477526E-2
MEAN_MOTION_DDOT = 0

CCSDS_OMM_VERS = 2.0
CREATION_DATE  = 
ORIGINATOR     = 

OBJECT_NAME    = STARLINK-37092
OBJECT_ID      = 2026-054J
CENTER_NAME    = EARTH
REF_FRAME      = TEME
TIME_SYSTEM    = UTC
MEAN_ELEMENT_THEORY = SGP/SGP4

EPOCH          = 2026-03-31T02:50:20.184288
MEAN_MOTION    = 15.81053587
ECCENTRICITY   = .0000606
INCLINATION    = 53.1595
RA_OF_ASC_NODE = 205.2223
ARG_OF_PERICENTER = 42.5189
MEAN_ANOMALY   = 317.5881

EPHEMERIS_TYPE = 0
CLASSIFICATION_TYPE = U
NORAD_CAT_ID   = 68240
ELEMENT_SET_NO = 999
REV_AT_EPOCH   = 216
BSTAR          = .20594E-2
MEAN_MOTION_DOT = .430265E-2
MEAN_MOTION_DDOT = 0

CCSDS_OMM_VERS = 2.0
CREATION_DATE  = 
ORIGINATOR     = 

OBJECT_NAME    = STARLINK-37094
OBJECT_ID      = 2026-054K
CENTER_NAME    = EARTH
REF_FRAME      = TEME
TIME_SYSTEM    = UTC
MEAN_ELEMENT_THEORY = SGP/SGP4

EPOCH          = 2026-03-31T02:48:10.844352
MEAN_MOTION    = 15.81013123
ECCENTRICITY   = .0000427
INCLINATION    = 53.1593
RA_OF_ASC_NODE = 205.2128
ARG_OF_PERICENTER = 31.5561
MEAN_ANOMALY   = 328.5488

EPHEMERIS_TYPE = 0
CLASSIFICATION_TYPE = U
NORAD_CAT_ID   = 68241
ELEMENT_SET_NO = 999
REV_AT_EPOCH   = 216
BSTAR          = .17532E-2
MEAN_MOTION_DOT = .36262E-2
MEAN_MOTION_DDOT = 0

CCSDS_OMM_VERS = 2.0
CREATION_DATE  = 
ORIGINATOR     = 

OBJECT_NAME    = STARLINK-36356
OBJECT_ID      = 2026-054L
CENTER_NAME    = EARTH
REF_FRAME      = TEME
TIME_SYSTEM    = UTC
MEAN_ELEMENT_THEORY = SGP/SGP4

EPOCH          = 2026-03-30T17:41:00.354624
MEAN_MOTION    = 15.80312000
ECCENTRICITY   = .00005033
INCLINATION    = 53.1596
RA_OF_ASC_NODE = 207.1073
ARG_OF_PERICENTER = 49.8547
MEAN_ANOMALY   = 310.2520

EPHEMERIS_TYPE = 0
CLASSIFICATION_TYPE = U
NORAD_CAT_ID   = 68242
ELEMENT_SET_NO = 999
REV_AT_EPOCH   = 210
BSTAR          = -.25692398E-2
MEAN_MOTION_DOT = -.468872E-2
MEAN_MOTION_DDOT = 0

CCSDS_OMM_VERS = 2.0
CREATION_DATE  = 
ORIGINATOR     = 

OBJECT_NAME    = STARLINK-36345
OBJECT_ID      = 2026-054M
CENTER_NAME    = EARTH
REF_FRAME      = TEME
TIME_SYSTEM    = UTC
MEAN_ELEMENT_THEORY = SGP/SGP4

EPOCH          = 2026-03-31T04:00:00.999936
MEAN_MOTION    = 15.75141076
ECCENTRICITY   = .0000997
INCLINATION    = 53.1605
RA_OF_ASC_NODE = 205.0571
ARG_OF_PERICENTER = 79.7792
MEAN_ANOMALY   = 156.9980

EPHEMERIS_TYPE = 0
CLASSIFICATION_TYPE = U
NORAD_CAT_ID   = 68243
ELEMENT_SET_NO = 999
REV_AT_EPOCH   = 340
BSTAR          = .78983E-3
MEAN_MOTION_DOT = .121665E-2
MEAN_MOTION_DDOT = 0

CCSDS_OMM_VERS = 2.0
CREATION_DATE  = 
ORIGINATOR     = 

OBJECT_NAME    = STARLINK-36310
OBJECT_ID      = 2026-054N
CENTER_NAME    = EARTH
REF_FRAME      = TEME
TIME_SYSTEM    = UTC
MEAN_ELEMENT_THEORY = SGP/SGP4

EPOCH          = 2026-03-31T01:12:49.702464
MEAN_MOTION    = 15.81041709
ECCENTRICITY   = .0001794
INCLINATION    = 53.1598
RA_OF_ASC_NODE = 205.5076
ARG_OF_PERICENTER = 68.9432
MEAN_ANOMALY   = 291.1783

EPHEMERIS_TYPE = 0
CLASSIFICATION_TYPE = U
NORAD_CAT_ID   = 68244
ELEMENT_SET_NO = 999
REV_AT_EPOCH   = 215
BSTAR          = .21727E-2
MEAN_MOTION_DOT = .455014E-2
MEAN_MOTION_DDOT = 0

